KUIPER-00074            
1 64821U 25151F   25309.51585345  .00003746  00000+0  51952-3 0  9994
2 64821  51.8993 119.6771 0012431 212.9606 147.0583 14.79960962 17051
KUIPER-00075            
1 64822U 25151G   25310.82160655  .00073179  00000+0  18009-2 0  9996
2 64822  51.8711  98.4834 0004722 151.5003 208.6244 15.39935343 17462
KUIPER-00076            
1 64823U 25151H   25310.52620394  .00004232  00000+0  58359-3 0  9992
2 64823  51.8987 117.7081 0003993 209.4183 150.6555 14.79947293 17177
KUIPER-00077            
1 64824U 25151J   25310.52087296  .00003786  00000+0  52516-3 0  9993
2 64824  51.9003 122.7338 0006373 162.7318 197.3862 14.79945892 17100
KUIPER-00078            
1 64825U 25151K   25310.48971420  .00008346  00000+0  11226-2 0  9999
2 64825  51.8975 120.3697 0007175 224.6536 135.3849 14.79915843 17134
KUIPER-00079            
1 64826U 25151L   25310.82884478 -.00065908  00000+0 -90761-2 0  9994
2 64826  51.8977 123.5844 0011833 188.2976 171.7791 14.78100887 18319
KUIPER-00080            
1 64827U 25151M   25310.21419149 -.00000116  00000+0  14010-4 0  9991
2 64827  51.8972 126.5809 0005275 204.6092 155.4620 14.79930657 17028
KUIPER-00082            
1 64828U 25151N   25310.80178338  .00004746  00000+0  65157-3 0  9998
2 64828  51.9007 111.4918 0004420 217.7214 142.3439 14.79901463 17289
KUIPER-00083            
1 64829U 25151P   25310.52344503  .00004541  00000+0  62393-3 0  9999
2 64829  51.8985 120.2201 0010510 192.5816 167.4885 14.79939270 18328
KUIPER-00084            
1 64830U 25151Q   25310.51270569  .00004551  00000+0  62528-3 0  9991
2 64830  51.8979 130.2554 0012057 163.3228 196.8133 14.79933219 16996
KUIPER-00085            
1 64831U 25151R   25310.49777722  .00004569  00000+0  62821-3 0  9997
2 64831  51.9018 112.8447 0007611 196.9484 163.1225 14.79914924 17234
KUIPER-00086            
1 64832U 25151S   25310.82464580  .00005661  00000+0  77019-3 0  9999
2 64832  51.9002 121.3899 0011327 187.1001 172.9803 14.79951237 17148
KUIPER-00087            
1 64833U 25151T   25310.83336806 -.01134748  00000+0 -10828+0 0  9993
2 64833  51.8929 104.4754 0002647 215.2369 126.7093 14.95718876  4303
KUIPER-00089            
1 64834U 25151U   25308.93975887 -.00210962  00000+0 -23624-1 0  9992
2 64834  51.8966 117.1387 0002704 206.1544 153.9285 14.87682809 17043
KUIPER-00090            
1 64835U 25151V   25310.83336806 -.00900513  00000+0 -60117-1 0  9993
2 64835  51.8971 103.0018 0004132 263.7280   9.3384 15.09368500  4626
KUIPER-00091            
1 64836U 25151W   25310.83336806 -.00019562  00000+0 -22595-2 0  9998
2 64836  51.8966 106.3946 0006647 246.2550  71.1618 14.84824392  3989
KUIPER-00092            
1 64837U 25151X   25310.49038882  .00004401  00000+0  59694-3 0  9999
2 64837  51.9002 115.3200 0006498 187.4764 172.6102 14.80573945 18412
KUIPER-00093            
1 64838U 25151Y   25310.49210553  .00004757  00000+0  65114-3 0  9995
2 64838  51.8970 117.8532 0013868 198.6509 161.3946 14.79989388 17163
KUIPER-00094            
1 64839U 25151Z   25309.85069157  .00009005  00000+0  66683-3 0  9999
2 64839  51.8881 111.7968 0005935 214.3696 145.6893 15.03789045 17195
KUIPER-00081            
1 65132U 25171A   25310.58809203  .00028592  00000+0  74853-3 0  9994
2 65132  51.8737 343.9911 0005855  65.4107 294.7490 15.38475988 14644
KUIPER-00088            
1 65133U 25171B   25310.83336806 -.00121553  00000+0 -12317-1 0  9995
2 65133  51.9184 349.2072 0008106  71.2323 292.3013 14.91115188  5440
KUIPER-00095            
1 65134U 25171C   25310.83336806 -.00700689  00000+0 -22973-1 0  9998
2 65134  51.8778 343.2612 0004212  65.5415 345.4734 15.33578513  5795
KUIPER-00096            
1 65135U 25171D   25310.83336806 -.01039304  00000+0 -60135-1 0  9991
2 65135  51.8818 344.6370 0010568  86.3298  10.0992 15.14816893  5772
KUIPER-00097            
1 65136U 25171E   25310.83336806 -.00014412  00000+0 -91520-3 0  9998
2 65136  51.8917 346.2634 0009223  92.0268 218.2066 15.07714424  4919
KUIPER-00098            
1 65137U 25171F   25310.83336806 -.00034009  00000+0 -27550-2 0  9994
2 65137  51.8912 347.3740 0007491  86.8431 102.5640 14.99157979  3900
KUIPER-00099            
1 65138U 25171G   25310.83336806 -.01131861  00000+0 -46205-1 0  9997
2 65138  51.8814 343.4583 0007367  88.5875 261.3817 15.26944232  5186
KUIPER-00100            
1 65139U 25171H   25310.83336806 -.00637027  00000+0 -21583-1 0  9994
2 65139  51.8790 343.1308 0004779  53.5539  78.1957 15.32310726  2600
KUIPER-00102            
1 65140U 25171J   25310.83336806 -.00679107  00000+0 -25732-1 0  9991
2 65140  51.8791 343.5697 0008536  71.3611 187.3909 15.28837835  4840
KUIPER-00103            
1 65141U 25171K   25310.52356662  .00005328  00000+0  72881-3 0  9995
2 65141  51.8991 355.2247 0006991  89.2975 270.8788 14.79843269 14474
KUIPER-00104            
1 65142U 25171L   25310.83336806 -.00494721  00000+0 -27036-1 0  9999
2 65142  51.8954 344.9702 0005025  81.7314 269.3696 15.16188297  4998
KUIPER-00105            
1 65143U 25171M   25310.83336806 -.00031464  00000+0 -31850-2 0  9991
2 65143  51.8955 349.3242 0011490  63.2918 120.6171 14.90378989  2700
KUIPER-00106            
1 65144U 25171N   25310.51814046  .00013011  00000+0  11703-2 0  9995
2 65144  51.8945 354.2546 0009612  49.7446 310.4362 14.95902468 14490
KUIPER-00107            
1 65145U 25171P   25310.47294940  .00052400  00000+0  13644-2 0  9997
2 65145  51.8760 344.7234 0006311  70.2917 289.8751 15.38350873 14620
KUIPER-00108            
1 65146U 25171Q   25310.83336806 -.00012074  00000+0 -75035-3 0  9994
2 65146  51.8893 346.0136 0008019  68.4908  73.9530 15.08354867  5733
KUIPER-00109            
1 65147U 25171R   25310.83336806 -.00670601  00000+0 -31465-1 0  9998
2 65147  51.8835 343.9312 0013266  71.8894  53.9600 15.21668497  5664
KUIPER-00110            
1 65148U 25171S   25310.52899208  .00008530  00000+0  94528-3 0  9990
2 65148  51.8970 352.8331 0010832  62.8244 297.3825 14.87944031 14508
KUIPER-00111            
1 65149U 25171T   25310.55438586  .00005616  00000+0  76485-3 0  9996
2 65149  51.8986 357.5835 0009998  74.2138 285.9926 14.79927028 14443
KUIPER-00112            
1 65150U 25171U   25310.83336806 -.00705452  00000+0 -29278-1 0  9994
2 65150  51.8844 343.9669 0007132  98.0963 331.1832 15.25981855  3325
KUIPER-00114            
1 65151U 25171V   25310.55156389  .00007747  00000+0  10433-2 0  9994
2 65151  51.9011   0.1241 0005912  65.7529 294.4051 14.79958830 14404
KUIPER-00115            
1 65152U 25171W   25310.83336806 -.00037675  00000+0 -45626-2 0  9997
2 65152  51.8991 351.3941 0011742  84.7973 272.9841 14.83187269  4380
KUIPER-00116            
1 65153U 25171X   25310.83336806 -.00025956  00000+0 -35554-2 0  9996
2 65153  51.8997 356.2794 0010149  48.9959 244.2355 14.77872573  4400
KUIPER-00118            
1 65154U 25171Y   25310.51779347  .00005781  00000+0  78606-3 0  9991
2 65154  51.9023   0.2485 0001868  87.1255 272.9921 14.79966985 14408
KUIPER-00119            
1 65155U 25171Z   25310.83336806 -.00724875  00000+0 -58752-1 0  9998
2 65155  51.9114 347.5194 0007262  61.9572 326.6974 15.02028938  5881
KUIPER-00120            
1 65762U 25217A   25310.83336806 -.00853365  00000+0 -46961-1 0  9999
2 65762  51.8817 239.7701 0012002 246.6384 214.8399 15.16003487  4550
KUIPER-00132            
1 65763U 25217B   25310.09346907  .00061829  00000+0  17183-2 0  9990
2 65763  51.8652 241.8584 0005503 243.0584 116.9840 15.36265392  6408
KUIPER-00133            
1 65764U 25217C   25310.83336806 -.00823301  00000+0 -43808-1 0  9995
2 65764  51.8795 239.7242 0008881 272.6278 273.0125 15.17551207  5844
KUIPER-00139            
1 65765U 25217D   25310.83336806 -.01207930  00000+0 -46848-1 0  9998
2 65765  51.8698 238.6624 0007070 242.2075  86.5374 15.28332432  5231
KUIPER-00142            
1 65766U 25217E   25310.78288299  .00058072  00000+0  15623-2 0  9991
2 65766  51.8702 238.2546 0002501 154.2129 205.8982 15.37312566  6512
KUIPER-00145            
1 65767U 25217F   25310.78883343  .00055185  00000+0  15054-2 0  9993
2 65767  51.8713 238.2950 0002306 211.9727 148.1119 15.36905585  6511
KUIPER-00147            
1 65768U 25217G   25310.09796923  .00057317  00000+0  16147-2 0  9998
2 65768  51.8661 241.8920 0005842 241.4820 118.5578 15.35874398  6405
KUIPER-00148            
1 65769U 25217H   25310.83358760  .00061557  00000+0  17650-2 0  9995
2 65769  51.8606 238.5485 0008667 265.9167  94.0828 15.35270857  6515
KUIPER-00150            
1 65770U 25217J   25310.83336806 -.00359004  00000+0 -16690-1 0  9995
2 65770  51.8690 239.1492 0008147 258.1738 150.9461 15.21088925  4304
KUIPER-00151            
1 65771U 25217K   25310.53294683  .00049276  00000+0  13453-2 0  9999
2 65771  51.8717 239.5750 0004363 224.4614 135.6022 15.36923817  6478
KUIPER-00152            
1 65772U 25217L   25310.82785006  .00050646  00000+0  13343-2 0  9997
2 65772  51.8719 237.8105 0003722 119.9168 240.2189 15.38016032  6523
KUIPER-00153            
1 65773U 25217M   25310.83336806 -.01681881  00000+0 -79755-1 0  9991
2 65773  51.8710 239.2672 0009902 256.3972 143.4525 15.22172281  2295
KUIPER-00155            
1 65774U 25217N   25310.80466559  .00069401  00000+0  19244-2 0  9991
2 65774  51.8665 238.3832 0004525 232.5142 127.5433 15.36287883  6514
KUIPER-00156            
1 65775U 25217P   25310.83485837  .00060138  00000+0  15907-2 0  9995
2 65775  51.8731 237.8577 0002680 166.9393 193.1664 15.37819992  6526
KUIPER-00158            
1 65776U 25217Q   25310.83336806 -.01409756  00000+0 -47023-1 0  9996
2 65776  51.8722 238.2310 0002816 232.4161 304.1681 15.33640484  4862
KUIPER-00163            
1 65777U 25217R   25310.83336806 -.00837299  00000+0 -32637-1 0  9998
2 65777  51.8657 238.6674 0008066 258.3804  36.5475 15.28045344  1302
